QIANFAN-41              
1 62242U 24232F   25296.25004979  .00000172  00000+0  24758-3 0  9997
2 62242  89.0032  46.2800 0012938 343.6802  16.3930 13.50980150 92431
QIANFAN-42              
1 62243U 24232G   25296.19457685  .00000894  00000+0  38007-3 0  9990
2 62243  89.0029  43.1179 0013179 245.2249 114.7572 14.24405577 94178
QIANFAN-43              
1 62244U 24232H   25296.24595998  .00000168  00000+0  24235-3 0  9999
2 62244  89.0037  46.3434 0014588 348.5950  11.4869 13.50981111 61041
QIANFAN-44              
1 62245U 24232J   25296.23354547  .00000181  00000+0  26254-3 0  9990
2 62245  89.0035  46.1562 0012743 346.3616  13.7189 13.50982340 92517
QIANFAN-45              
1 62246U 24232K   25296.20071148  .00000174  00000+0  25068-3 0  9995
2 62246  89.0040  46.3042 0013373 345.7855  14.2918 13.50978908 92439
QIANFAN-46              
1 62247U 24232L   25296.22536841  .00000179  00000+0  25802-3 0  9995
2 62247  89.0035  46.3729 0013614 351.4945   8.5974 13.50979513 92394
QIANFAN-47              
1 62248U 24232M   25296.22948838  .00000173  00000+0  24995-3 0  9995
2 62248  89.0030  46.3074 0013999 350.4047   9.6835 13.50981260 92425
QIANFAN-48              
1 62249U 24232N   25296.19254125  .00000182  00000+0  26272-3 0  9991
2 62249  89.0035  46.3110 0016314 352.3275   7.7624 13.50977322 92429
